[{"OBJECT_NAME":"TEIKYOSAT-4 (OORURI)","OBJECT_ID":"2021-102B","EPOCH":"2026-03-09T16:12:29.535840","MEAN_MOTION":15.09119208,"ECCENTRICITY":0.00103447,"INCLINATION":97.3797,"RA_OF_ASC_NODE":101.9931,"ARG_OF_PERICENTER":276.5421,"MEAN_ANOMALY":83.463,"EPHEMERIS_TYPE":0,"CLASSIFICATION_TYPE":"U","NORAD_CAT_ID":49396,"ELEMENT_SET_NO":999,"REV_AT_EPOCH":23771,"BSTAR":0.00015739844,"MEAN_MOTION_DOT":2.438e-5,"MEAN_MOTION_DDOT":0},{"OBJECT_NAME":"STARLINK-5949","OBJECT_ID":"2023-042AK","EPOCH":"2026-03-09T22:00:01.999584","MEAN_MOTION":15.0670582,"ECCENTRICITY":7.218e-5,"INCLINATION":42.9999,"RA_OF_ASC_NODE":42.1667,"ARG_OF_PERICENTER":258.8757,"MEAN_ANOMALY":5.4964,"EPHEMERIS_TYPE":0,"CLASSIFICATION_TYPE":"U","NORAD_CAT_ID":56019,"ELEMENT_SET_NO":999,"REV_AT_EPOCH":567,"BSTAR":0.0037418167,"MEAN_MOTION_DOT":0.00056769,"MEAN_MOTION_DDOT":0}]
